[
    {
        "Altitude(m)": 607895.8455088886,
        "Argument of Periapsis(deg)": 0.0,
        "Eccentricity": 0.0,
        "Inclination(deg)": 60.0,
        "Latitude(deg)": 40.99841577023979,
        "Longitude(deg)": 145.0887178382655,
        "Mean Anomaly(deg)": 130.9091,
        "RAAN(deg)": 95.0,
        "Satellite Name": "Test1 426",
        "Satellite Number": 426,
        "Semi-Major Axis(m)": 6980739.136638005,
        "Time(s)": 0
    },
    {
        "Altitude(m)": 607795.1580150201,
        "Argument of Periapsis(deg)": 0.00010418945913296404,
        "Eccentricity": 0.0,
        "Inclination(deg)": 60.0,
        "Latitude(deg)": 40.53073930820396,
        "Longitude(deg)": 145.58531104839935,
        "Mean Anomaly(deg)": 131.5292061454618,
        "RAAN(deg)": 94.99957995086027,
        "Satellite Name": "Test1 426",
        "Satellite Number": 426,
        "Semi-Major Axis(m)": 6980739.136638005,
        "Time(s)": 10
    }
]